sat07769
1 07769U 75034B   20046.89853712  .00000062  00000-0  48627-4 0  9992
2 07769  82.9642   3.5678 0018842   5.9812  46.4657 13.74893275247812
